[{"OBJECT_NAME":"ONEWEB-0281","OBJECT_ID":"2021-060AJ","EPOCH":"2025-10-26T21:47:02.959296","MEAN_MOTION":13.16592149,"ECCENTRICITY":0.00017785,"INCLINATION":87.8986,"RA_OF_ASC_NODE":275.2388,"ARG_OF_PERICENTER":85.4048,"MEAN_ANOMALY":274.7286,"EPHEMERIS_TYPE":0,"CLASSIFICATION_TYPE":"U","NORAD_CAT_ID":48999,"ELEMENT_SET_NO":999,"REV_AT_EPOCH":20893,"BSTAR":-1.16667e-7,"MEAN_MOTION_DOT":1.3e-7,"MEAN_MOTION_DDOT":0},{"OBJECT_NAME":"ONEWEB-0282","OBJECT_ID":"2021-060AK","EPOCH":"2025-10-26T22:30:23.448960","MEAN_MOTION":13.16594447,"ECCENTRICITY":0.00020056,"INCLINATION":87.8989,"RA_OF_ASC_NODE":275.2438,"ARG_OF_PERICENTER":89.8403,"MEAN_ANOMALY":270.2958,"EPHEMERIS_TYPE":0,"CLASSIFICATION_TYPE":"U","NORAD_CAT_ID":49000,"ELEMENT_SET_NO":999,"REV_AT_EPOCH":20891,"BSTAR":0.00010619466,"MEAN_MOTION_DOT":5.3e-7,"MEAN_MOTION_DDOT":0},{"OBJECT_NAME":"ONEWEB-0283","OBJECT_ID":"2021-060AL","EPOCH":"2025-10-26T22:14:24.554112","MEAN_MOTION":13.16593052,"ECCENTRICITY":0.00018843,"INCLINATION":87.8987,"RA_OF_ASC_NODE":275.2466,"ARG_OF_PERICENTER":91.1469,"MEAN_ANOMALY":268.9878,"EPHEMERIS_TYPE":0,"CLASSIFICATION_TYPE":"U","NORAD_CAT_ID":49001,"ELEMENT_SET_NO":999,"REV_AT_EPOCH":20892,"BSTAR":0.0002768163,"MEAN_MOTION_DOT":1.19e-6,"MEAN_MOTION_DDOT":0},{"OBJECT_NAME":"ONEWEB-0284","OBJECT_ID":"2021-060AM","EPOCH":"2025-10-26T22:05:18.499200","MEAN_MOTION":13.16594041,"ECCENTRICITY":0.00022587,"INCLINATION":87.8995,"RA_OF_ASC_NODE":275.2336,"ARG_OF_PERICENTER":82.6008,"MEAN_ANOMALY":277.538,"EPHEMERIS_TYPE":0,"CLASSIFICATION_TYPE":"U","NORAD_CAT_ID":49002,"ELEMENT_SET_NO":999,"REV_AT_EPOCH":20890,"BSTAR":0.00021200376,"MEAN_MOTION_DOT":9.4e-7,"MEAN_MOTION_DDOT":0},{"OBJECT_NAME":"ONEWEB-0285","OBJECT_ID":"2021-075A","EPOCH":"2025-10-26T18:35:23.484768","MEAN_MOTION":13.12444689,"ECCENTRICITY":0.00017945,"INCLINATION":87.8969,"RA_OF_ASC_NODE":37.0264,"ARG_OF_PERICENTER":102.354,"MEAN_ANOMALY":257.7789,"EPHEMERIS_TYPE":0,"CLASSIFICATION_TYPE":"U","NORAD_CAT_ID":49075,"ELEMENT_SET_NO":999,"REV_AT_EPOCH":20459,"BSTAR":-0.00077399808,"MEAN_MOTION_DOT":-2.66e-6,"MEAN_MOTION_DDOT":0},{"OBJECT_NAME":"ONEWEB-0286","OBJECT_ID":"2021-075B","EPOCH":"2025-10-26T18:09:19.265472","MEAN_MOTION":13.12441893,"ECCENTRICITY":0.00015893,"INCLINATION":87.8963,"RA_OF_ASC_NODE":37.0653,"ARG_OF_PERICENTER":97.5088,"MEAN_ANOMALY":262.6221,"EPHEMERIS_TYPE":0,"CLASSIFICATION_TYPE":"U","NORAD_CAT_ID":49076,"ELEMENT_SET_NO":999,"REV_AT_EPOCH":20394,"BSTAR":-0.0010608239,"MEAN_MOTION_DOT":-3.69e-6,"MEAN_MOTION_DDOT":0},{"OBJECT_NAME":"ONEWEB-0287","OBJECT_ID":"2021-075C","EPOCH":"2025-10-26T19:33:18.128160","MEAN_MOTION":13.17646902,"ECCENTRICITY":0.00015432,"INCLINATION":87.9126,"RA_OF_ASC_NODE":52.2698,"ARG_OF_PERICENTER":84.9776,"MEAN_ANOMALY":275.1532,"EPHEMERIS_TYPE":0,"CLASSIFICATION_TYPE":"U","NORAD_CAT_ID":49077,"ELEMENT_SET_NO":999,"REV_AT_EPOCH":20289,"BSTAR":1.2229613e-5,"MEAN_MOTION_DOT":1.8e-7,"MEAN_MOTION_DDOT":0},{"OBJECT_NAME":"ONEWEB-0288","OBJECT_ID":"2021-075D","EPOCH":"2025-10-26T19:24:14.160672","MEAN_MOTION":13.12444245,"ECCENTRICITY":0.00018428,"INCLINATION":87.8969,"RA_OF_ASC_NODE":37.0151,"ARG_OF_PERICENTER":97.3963,"MEAN_ANOMALY":262.7375,"EPHEMERIS_TYPE":0,"CLASSIFICATION_TYPE":"U","NORAD_CAT_ID":49078,"ELEMENT_SET_NO":999,"REV_AT_EPOCH":20457,"BSTAR":0.001087536,"MEAN_MOTION_DOT":4.04e-6,"MEAN_MOTION_DDOT":0},{"OBJECT_NAME":"ONEWEB-0289","OBJECT_ID":"2021-075E","EPOCH":"2025-10-26T20:29:01.639680","MEAN_MOTION":13.1764868,"ECCENTRICITY":0.00021216,"INCLINATION":87.9115,"RA_OF_ASC_NODE":52.2825,"ARG_OF_PERICENTER":97.3184,"MEAN_ANOMALY":262.8189,"EPHEMERIS_TYPE":0,"CLASSIFICATION_TYPE":"U","NORAD_CAT_ID":49079,"ELEMENT_SET_NO":999,"REV_AT_EPOCH":20347,"BSTAR":-0.00014849812,"MEAN_MOTION_DOT":-4.5e-7,"MEAN_MOTION_DDOT":0},{"OBJECT_NAME":"ONEWEB-0290","OBJECT_ID":"2021-075F","EPOCH":"2025-10-26T19:50:20.727456","MEAN_MOTION":13.17655185,"ECCENTRICITY":0.00024065,"INCLINATION":87.9118,"RA_OF_ASC_NODE":52.2458,"ARG_OF_PERICENTER":104.1277,"MEAN_ANOMALY":256.0122,"EPHEMERIS_TYPE":0,"CLASSIFICATION_TYPE":"U","NORAD_CAT_ID":49080,"ELEMENT_SET_NO":999,"REV_AT_EPOCH":20288,"BSTAR":-0.0034544767,"MEAN_MOTION_DOT":-1.328e-5,"MEAN_MOTION_DDOT":0},{"OBJECT_NAME":"ONEWEB-0291","OBJECT_ID":"2021-075G","EPOCH":"2025-10-26T19:28:28.547328","MEAN_MOTION":13.17649266,"ECCENTRICITY":0.00018153,"INCLINATION":87.9125,"RA_OF_ASC_NODE":52.2546,"ARG_OF_PERICENTER":88.8209,"MEAN_ANOMALY":271.3131,"EPHEMERIS_TYPE":0,"CLASSIFICATION_TYPE":"U","NORAD_CAT_ID":49081,"ELEMENT_SET_NO":999,"REV_AT_EPOCH":20287,"BSTAR":-2.2428193e-5,"MEAN_MOTION_DOT":4.0e-8,"MEAN_MOTION_DDOT":0},{"OBJECT_NAME":"ONEWEB-0293","OBJECT_ID":"2021-075H","EPOCH":"2025-10-26T20:04:55.292448","MEAN_MOTION":13.17649452,"ECCENTRICITY":0.00018151,"INCLINATION":87.9114,"RA_OF_ASC_NODE":52.2748,"ARG_OF_PERICENTER":99.7123,"MEAN_ANOMALY":260.4214,"EPHEMERIS_TYPE":0,"CLASSIFICATION_TYPE":"U","NORAD_CAT_ID":49082,"ELEMENT_SET_NO":999,"REV_AT_EPOCH":20290,"BSTAR":0.00026990415,"MEAN_MOTION_DOT":1.18e-6,"MEAN_MOTION_DDOT":0},{"OBJECT_NAME":"ONEWEB-0294","OBJECT_ID":"2021-075J","EPOCH":"2025-10-26T19:33:35.484192","MEAN_MOTION":13.12442693,"ECCENTRICITY":0.00022332,"INCLINATION":87.8971,"RA_OF_ASC_NODE":37.0142,"ARG_OF_PERICENTER":97.5916,"MEAN_ANOMALY":262.5466,"EPHEMERIS_TYPE":0,"CLASSIFICATION_TYPE":"U","NORAD_CAT_ID":49083,"ELEMENT_SET_NO":999,"REV_AT_EPOCH":20396,"BSTAR":0.00057821195,"MEAN_MOTION_DOT":2.21e-6,"MEAN_MOTION_DDOT":0},{"OBJECT_NAME":"ONEWEB-0295","OBJECT_ID":"2021-075K","EPOCH":"2025-10-26T20:03:41.264064","MEAN_MOTION":13.17647207,"ECCENTRICITY":0.00017623,"INCLINATION":87.9115,"RA_OF_ASC_NODE":52.2797,"ARG_OF_PERICENTER":88.1485,"MEAN_ANOMALY":271.9848,"EPHEMERIS_TYPE":0,"CLASSIFICATION_TYPE":"U","NORAD_CAT_ID":49084,"ELEMENT_SET_NO":999,"REV_AT_EPOCH":20286,"BSTAR":0.00010165549,"MEAN_MOTION_DOT":5.2e-7,"MEAN_MOTION_DDOT":0},{"OBJECT_NAME":"ONEWEB-0296","OBJECT_ID":"2021-075L","EPOCH":"2025-10-26T19:05:34.145376","MEAN_MOTION":13.12440382,"ECCENTRICITY":0.00020026,"INCLINATION":87.8967,"RA_OF_ASC_NODE":37.0235,"ARG_OF_PERICENTER":88.5393,"MEAN_ANOMALY":271.5965,"EPHEMERIS_TYPE":0,"CLASSIFICATION_TYPE":"U","NORAD_CAT_ID":49085,"ELEMENT_SET_NO":999,"REV_AT_EPOCH":20396,"BSTAR":-0.00084949968,"MEAN_MOTION_DOT":-2.93e-6,"MEAN_MOTION_DDOT":0},{"OBJECT_NAME":"ONEWEB-0297","OBJECT_ID":"2021-075M","EPOCH":"2025-10-26T19:49:55.974720","MEAN_MOTION":13.12443596,"ECCENTRICITY":0.00016528,"INCLINATION":87.8962,"RA_OF_ASC_NODE":37.0522,"ARG_OF_PERICENTER":99.2472,"MEAN_ANOMALY":260.8843,"EPHEMERIS_TYPE":0,"CLASSIFICATION_TYPE":"U","NORAD_CAT_ID":49086,"ELEMENT_SET_NO":999,"REV_AT_EPOCH":20457,"BSTAR":-0.00031524161,"MEAN_MOTION_DOT":-1.01e-6,"MEAN_MOTION_DDOT":0}]
