ONEWEB-0281             
1 48999U 21060AJ  25299.90767314  .00000013  00000+0 -11667-6 0  9993
2 48999  87.8986 275.2388 0001778  85.4048 274.7286 13.16592149208933
ONEWEB-0282             
1 49000U 21060AK  25299.93777140  .00000053  00000+0  10619-3 0  9994
2 49000  87.8989 275.2438 0002005  89.8403 270.2958 13.16594447208911
ONEWEB-0283             
1 49001U 21060AL  25299.92667308  .00000119  00000+0  27682-3 0  9999
2 49001  87.8987 275.2466 0001884  91.1469 268.9878 13.16593052208920
ONEWEB-0284             
1 49002U 21060AM  25299.92035300  .00000094  00000+0  21200-3 0  9993
2 49002  87.8995 275.2336 0002258  82.6008 277.5380 13.16594041208907
ONEWEB-0285             
1 49075U 21075A   25299.77457737 -.00000266  00000+0 -77400-3 0  9990
2 49075  87.8969  37.0264 0001794 102.3540 257.7789 13.12444689204599
ONEWEB-0286             
1 49076U 21075B   25299.75647298 -.00000369  00000+0 -10608-2 0  9992
2 49076  87.8963  37.0653 0001589  97.5088 262.6221 13.12441893203948
ONEWEB-0287             
1 49077U 21075C   25299.81479315  .00000018  00000+0  12230-4 0  9997
2 49077  87.9126  52.2698 0001543  84.9776 275.1532 13.17646902202893
ONEWEB-0288             
1 49078U 21075D   25299.80849723  .00000404  00000+0  10875-2 0  9991
2 49078  87.8969  37.0151 0001842  97.3963 262.7375 13.12444245204576
ONEWEB-0289             
1 49079U 21075E   25299.85349120 -.00000045  00000+0 -14850-3 0  9994
2 49079  87.9115  52.2825 0002121  97.3184 262.8189 13.17648680203470
ONEWEB-0290             
1 49080U 21075F   25299.82662879 -.00001328  00000+0 -34545-2 0  9999
2 49080  87.9118  52.2458 0002406 104.1277 256.0122 13.17655185202887
ONEWEB-0291             
1 49081U 21075G   25299.81144152  .00000004  00000+0 -22428-4 0  9996
2 49081  87.9125  52.2546 0001815  88.8209 271.3131 13.17649266202872
ONEWEB-0293             
1 49082U 21075H   25299.83675107  .00000118  00000+0  26990-3 0  9990
2 49082  87.9114  52.2748 0001815  99.7123 260.4214 13.17649452202903
ONEWEB-0294             
1 49083U 21075J   25299.81499403  .00000221  00000+0  57821-3 0  9994
2 49083  87.8971  37.0142 0002233  97.5916 262.5466 13.12442693203966
ONEWEB-0295             
1 49084U 21075K   25299.83589426  .00000052  00000+0  10166-3 0  9995
2 49084  87.9115  52.2797 0001762  88.1485 271.9848 13.17647207202865
ONEWEB-0296             
1 49085U 21075L   25299.79553409 -.00000293  00000+0 -84950-3 0  9994
2 49085  87.8967  37.0235 0002002  88.5393 271.5965 13.12440382203966
ONEWEB-0297             
1 49086U 21075M   25299.82634230 -.00000101  00000+0 -31524-3 0  9998
2 49086  87.8962  37.0522 0001652  99.2472 260.8843 13.12443596204572
